     2.10           GLONASS NAV DATA                        RINEX VERSION / TYPE
JPS2RIN v.2.1.236   JAVAD GNSS          20220908 024818 UTC PGM / RUN BY / DATE
    16                                                      LEAP SECONDS
                                                            END OF HEADER
19 15  6 13  8 45  0.0-1.280382275581D-04-9.094947017729D-13 3.237000000000D+04
    1.502729589844D+04 4.814071655273D-01 3.725290298462D-09 0.000000000000D+00
    2.015656005859D+04 3.928556442261D-01 0.000000000000D+00 3.000000000000D+00
   -4.295735351563D+03 3.526555061340D+00 1.862645149231D-09 0.000000000000D+00
19 15  6 13  9 15  0.0-1.280400902033D-04-9.094947017729D-13 3.417000000000D+04
    1.546318896484D+04-3.228759765625D-02 3.725290298462D-09 0.000000000000D+00
    2.017180664063D+04-3.534507751465D-01-9.313225746155D-10 3.000000000000D+00
    2.136156738281D+03 3.573567390442D+00 9.313225746155D-10 0.000000000000D+00
19 15  6 13  9 45  0.0-1.280410215259D-04-9.094947017729D-13 3.597000000000D+04
    1.480760742188D+04-7.173080444336D-01 3.725290298462D-09 0.000000000000D+00
    1.899264453125D+04-9.200181961060D-01-1.862645149231D-09 3.000000000000D+00
    8.402833984375D+03 3.344181060791D+00 0.000000000000D+00 0.000000000000D+00
19 15  6 13 10 15  0.0-1.280428841710D-04-9.094947017729D-13 3.777000000000D+04
    1.283645751953D+04-1.475811004639D+00 2.793967723846D-09 0.000000000000D+00
    1.700849365234D+04-1.240126609802D+00-1.862645149231D-09 3.000000000000D+00
    1.401964794922D+04 2.856200218201D+00 0.000000000000D+00 0.000000000000D+00
20 15  6 13 10 15  0.0-1.790281385183D-04-1.818989403546D-12 3.777000000000D+04
    2.144774365234D+04 4.773912429810D-01 2.793967723846D-09 0.000000000000D+00
    1.336151025391D+04 9.744834899902D-02-1.862645149231D-09 2.000000000000D+00
   -3.241867675781D+03 3.557929992676D+00 1.862645149231D-09 0.000000000000D+00
19 15  6 13 10 45  0.0-1.280447468162D-04-9.094947017729D-13 3.957000000000D+04
    9.519165039063D+03-2.193598747253D+00 1.862645149231D-09 0.000000000000D+00
    1.469125488281D+04-1.290032386780D+00-1.862645149231D-09 3.000000000000D+00
    1.855234667969D+04 2.147445678711D+00-9.313225746155D-10 0.000000000000D+00
20 15  6 13 10 45  0.0-1.790318638086D-04-1.818989403546D-12 3.957000000000D+04
    2.163018701172D+04-2.965736389160D-01 2.793967723846D-09 0.000000000000D+00
    1.307638525391D+04-3.786544799805D-01-2.793967723846D-09 2.000000000000D+00
    3.205161132813D+03 3.558740615845D+00 9.313225746155D-10 0.000000000000D+00
19 15  6 13 11 15  0.0-1.280466094613D-04-9.094947017729D-13 4.137000000000D+04
    5.031461425781D+03-2.758827209473D+00 9.313225746155D-10 0.000000000000D+00
    1.251383984375D+04-1.092255592346D+00-9.313225746155D-10 3.000000000000D+00
    2.165064990234D+04 1.272784233093D+00-1.862645149231D-09 0.000000000000D+00
20 15  6 13 11 15  0.0-1.790365204215D-04-1.818989403546D-12 4.137000000000D+04
    2.033419873047D+04-1.146481513977D+00 2.793967723846D-09 0.000000000000D+00
    1.214183154297D+04-6.171092987061D-01-2.793967723846D-09 2.000000000000D+00
    9.403498535156D+03 3.283447265625D+00 0.000000000000D+00 0.000000000000D+00
 4 15  6 13 11 45  0.0 1.250235363841D-04 9.094947017729D-13 4.311000000000D+04
   -1.811352099609D+04 5.182275772095D-01-3.725290298462D-09 0.000000000000D+00
    1.741564208984D+04-3.514966964722D-01 9.313225746155D-10 6.000000000000D+00
    4.449197265625D+03 3.500383377075D+00-1.862645149231D-09 0.000000000000D+00
19 15  6 13 11 45  0.0-1.280484721065D-04-9.094947017729D-13 4.317000000000D+04
   -2.656894531250D+02-3.080399513245D+00 0.000000000000D+00 0.000000000000D+00
    1.086976513672D+04-7.111320495605D-01-9.313225746155D-10 3.000000000000D+00
    2.307525634766D+04 2.998533248901D-01-2.793967723846D-09 0.000000000000D+00
20 15  6 13 11 45  0.0-1.790411770344D-04-1.818989403546D-12 4.317000000000D+04
    1.752770947266D+04-1.955088615417D+00 1.862645149231D-09 0.000000000000D+00
    1.100985156250D+04-5.987014770508D-01-2.793967723846D-09 2.000000000000D+00
    1.487253417969D+04 2.753757476807D+00 0.000000000000D+00 0.000000000000D+00
 4 15  6 13 12 15  0.0 1.250263303518D-04 9.094947017729D-13 4.416000000000D+04
   -1.678618750000D+04 9.156875610352D-01-2.793967723846D-09 0.000000000000D+00
    1.610749560547D+04-1.112035751343D+00 9.313225746155D-10 6.000000000000D+00
    1.049679931641D+04 3.175630569458D+00-2.793967723846D-09 0.000000000000D+00
19 15  6 13 12 15  0.0-1.280521973968D-04-9.094947017729D-13 4.497000000000D+04
   -5.877666015625D+03-3.102984428406D+00 0.000000000000D+00 0.000000000000D+00
    1.000719189453D+04-2.414398193359D-01 0.000000000000D+00 3.000000000000D+00
    2.271622900391D+04-6.961746215820D-01-2.793967723846D-09 0.000000000000D+00
20 15  6 13 12 15  0.0-1.790449023247D-04-1.818989403546D-12 4.497000000000D+04
    1.338918505859D+04-2.608941078186D+00 9.313225746155D-10 0.000000000000D+00
    1.012528515625D+04-3.503904342651D-01-2.793967723846D-09 2.000000000000D+00
    1.918898681641D+04 2.011219978333D+00-9.313225746155D-10 0.000000000000D+00
21 15  6 13 12 15  0.0 1.597590744495D-05 1.818989403546D-12 4.413000000000D+04
    2.444029443359D+04-7.686910629272D-01 1.862645149231D-09 0.000000000000D+00
    4.586353515625D+03-2.403306961060D-01-3.725290298462D-09 4.000000000000D+00
    5.734897949219D+03 3.466815948486D+00 9.313225746155D-10 7.000000000000D+00
 4 15  6 13 12 45  0.0 1.250291243196D-04 9.094947017729D-13 4.596000000000D+04
   -1.497216894531D+04 1.056134223938D+00-9.313225746155D-10 0.000000000000D+00
    1.341018847656D+04-1.875962257385D+00 9.313225746155D-10 6.000000000000D+00
    1.573413476563D+04 2.605957984924D+00-2.793967723846D-09 0.000000000000D+00
 5 15  6 13 12 45  0.0 7.446855306625D-06 0.000000000000D+00 4.677000000000D+04
   -1.096945751953D+04 9.983539581299D-02-3.725290298462D-09 0.000000000000D+00
    2.302428320313D+04 1.106739044189D-01 1.862645149231D-09 1.000000000000D+00
   -4.103217773438D+02 3.558093070984D+00-1.862645149231D-09 0.000000000000D+00
19 15  6 13 12 45  0.0-1.280540600419D-04-9.094947017729D-13 4.590000000000D+04
   -1.124985937500D+04-2.816207885742D+00-9.313225746155D-10 0.000000000000D+00
    9.988342285156D+03 2.080144882202D-01 9.313225746155D-10 3.000000000000D+00
    2.060140673828D+04-1.638376235962D+00-2.793967723846D-09 0.000000000000D+00
20 15  6 13 12 45  0.0-1.790486276150D-04-1.818989403546D-12 4.677000000000D+04
    8.283855468750D+03-3.016828536987D+00 0.000000000000D+00 0.000000000000D+00
    9.846178222656D+03 5.982398986816D-02-1.862645149231D-09 2.000000000000D+00
    2.201976513672D+04 1.113809585571D+00-1.862645149231D-09 0.000000000000D+00
21 15  6 13 12 45  0.0 1.597963273525D-05 1.818989403546D-12 4.593000000000D+04
    2.228714160156D+04-1.604333877563D+00 9.313225746155D-10 0.000000000000D+00
    4.268615234375D+03-7.425212860107D-02-3.725290298462D-09 4.000000000000D+00
    1.167319482422D+04 3.088495254517D+00 0.000000000000D+00 7.000000000000D+00
 4 15  6 13 13 15  0.0 1.250328496099D-04 9.094947017729D-13 4.779000000000D+04
   -1.313577490234D+04 9.452676773071D-01 0.000000000000D+00 0.000000000000D+00
    9.420160156250D+03-2.530148506165D+00 9.313225746155D-10 6.000000000000D+00
    1.975744042969D+04 1.835457801819D+00-2.793967723846D-09 0.000000000000D+00
 5 15  6 13 13 15  0.0 7.446855306625D-06 0.000000000000D+00 4.857000000000D+04
   -1.049952734375D+04 3.828563690186D-01-2.793967723846D-09 0.000000000000D+00
    2.247704736328D+04-7.280626296997D-01 1.862645149231D-09 1.000000000000D+00
    5.927336425781D+03 3.438008308411D+00-2.793967723846D-09 0.000000000000D+00
19 15  6 13 13 15  0.0-1.280559226871D-04-9.094947017729D-13 4.752000000000D+04
   -1.585142480469D+04-2.256512641907D+00-9.313225746155D-10 0.000000000000D+00
    1.068096337891D+04 5.331020355225D-01 1.862645149231D-09 3.000000000000D+00
    1.689423339844D+04-2.453973770142D+00-2.793967723846D-09 0.000000000000D+00
20 15  6 13 13 15  0.0-1.790523529053D-04-1.818989403546D-12 4.857000000000D+04
    2.709662597656D+03-3.124498367310D+00 0.000000000000D+00 0.000000000000D+00
    1.037983886719D+04 5.349369049072D-01-9.313225746155D-10 2.000000000000D+00
    2.314749267578D+04 1.312618255615D-01-2.793967723846D-09 0.000000000000D+00
21 15  6 13 13 15  0.0 1.598335802555D-05 1.818989403546D-12 4.776000000000D+04
    1.876583300781D+04-2.272282600403D+00 9.313225746155D-10 0.000000000000D+00
    4.441605468750D+03 2.948064804077D-01-2.793967723846D-09 4.000000000000D+00
    1.670997314453D+04 2.471613883972D+00-9.313225746155D-10 7.000000000000D+00
 4 15  6 13 13 45  0.0 1.250356435776D-04 9.094947017729D-13 4.956000000000D+04
   -1.169133544922D+04 6.320219039917D-01 9.313225746155D-10 0.000000000000D+00
    4.427665039063D+03-2.975339889526D+00 0.000000000000D+00 6.000000000000D+00
    2.225671435547D+04 9.235410690308D-01-2.793967723846D-09 0.000000000000D+00
 5 15  6 13 13 45  0.0 7.447786629200D-06 0.000000000000D+00 5.037000000000D+04
   -9.738754882813D+03 4.214267730713D-01-1.862645149231D-09 0.000000000000D+00
    2.040423046875D+04-1.565098762512D+00 1.862645149231D-09 1.000000000000D+00
    1.180655078125D+04 3.052021980286D+00-2.793967723846D-09 0.000000000000D+00
20 15  6 13 13 45  0.0-1.790560781956D-04-1.818989403546D-12 5.037000000000D+04
   -2.778018066406D+03-2.923218727112D+00 0.000000000000D+00 0.000000000000D+00
    1.174524414063D+04 9.657592773438D-01 0.000000000000D+00 2.000000000000D+00
    2.248682177734D+04-8.604183197021D-01-2.793967723846D-09 0.000000000000D+00
21 15  6 13 13 45  0.0 1.598615199327D-05 1.818989403546D-12 4.953000000000D+04
    1.425857714844D+04-2.688799858093D+00 0.000000000000D+00 0.000000000000D+00
    5.405597167969D+03 7.891578674316D-01-2.793967723846D-09 4.000000000000D+00
    2.045610351563D+04 1.663725852966D+00-9.313225746155D-10 7.000000000000D+00
